NORAD_CAT_ID,OBJECT_NAME,OBJECT_TYPE,EPOCH,MEAN_MOTION,ECCENTRICITY,INCLINATION,RA_OF_ASC_NODE,ARG_OF_PERICENTER,MEAN_ANOMALY,BSTAR,MEAN_MOTION_DOT,MEAN_MOTION_DDOT,TLE_LINE0,TLE_LINE1,TLE_LINE2,SEMIMAJOR_AXIS,PERIOD,APOGEE,PERIGEE,DECAYED
53712.0,STARLINK-4683,PAYLOAD,2022-09-12 14:00:01,15.79107179,9.31e-05,53.2172,236.1008,89.3054,257.2344,-0.0073979,-0.01196944,0.0,0 STARLINK-4683,1 53712U 22107N   22255.58334491 -.01196944  00000-0 -73979-2 0  9996,2 53712  53.2172 236.1008 0000931  89.3054 257.2344 15.79107179  1300,6711.106,91.191,333.596,332.346,0.0
53712.0,STARLINK-4683,PAYLOAD,2022-09-12 22:00:00,15.78260977,0.0001109,53.2162,234.4364,77.913,4.1055,-0.0078613,-0.01220782,0.0,0 STARLINK-4683,1 53712U 22107N   22255.91667824 -.01220782  00000-0 -78613-2 0  9990,2 53712  53.2162 234.4364 0001109  77.9130   4.1055 15.78260977  1304,6713.505,91.24,336.1140000000001,334.625,0.0
53712.0,STARLINK-4683,PAYLOAD,2022-09-13 06:00:00,15.7737078,0.0001236,53.2173,232.7777,73.9952,102.4848,-0.0079906,-0.01195195,0.0,0 STARLINK-4683,1 53712U 22107N   22256.25001157 -.01195195  00000-0 -79906-2 0  9994,2 53712  53.2173 232.7777 0001236  73.9952 102.4848 15.77370780  1400,6716.03,91.291,338.725,337.065,0.0
53712.0,STARLINK-4683,PAYLOAD,2022-09-13 14:00:01,15.76504179,0.0001063,53.2174,231.1181,81.5734,188.313,-0.0083247,-0.01197338,0.0,0 STARLINK-4683,1 53712U 22107N   22256.58334491 -.01197338  00000-0 -83247-2 0  9994,2 53712  53.2174 231.1181 0001063  81.5734 188.3130 15.76504179  1300,6718.491,91.341,341.07,339.642,0.0
53712.0,STARLINK-4683,PAYLOAD,2022-09-13 20:00:01,15.75850409,0.0001105999999999,53.2174,229.8742,85.9765,163.2815,-0.0085316,-0.01192531,0.0,0 STARLINK-4683,1 53712U 22107N   22256.83334491 -.01192531  00000-0 -85316-2 0  9991,2 53712  53.2174 229.8742 0001106  85.9765 163.2815 15.75850409  1498,6720.349,91.379,342.958,341.471,0.0
53712.0,STARLINK-4683,PAYLOAD,2022-09-13 22:00:00,15.75632415,9.83e-05,53.2177,229.4604,83.8536,278.3981,-0.0085957,-0.01190169,0.0,0 STARLINK-4683,1 53712U 22107N   22256.91667824 -.01190169  00000-0 -85957-2 0  9995,2 53712  53.2177 229.4604 0000983  83.8536 278.3981 15.75632415  1306,6720.969,91.392,343.495,342.1740000000001,0.0
53712.0,STARLINK-4683,PAYLOAD,2022-09-14 14:00:01,15.73786063,9.86e-05,53.2167,226.1551,97.2691,86.5767,-0.0051782,-0.00687884,0.0,0 STARLINK-4683,1 53712U 22107N   22257.58334491 -.00687884  00000-0 -51782-2 0  9993,2 53712  53.2167 226.1551 0000986  97.2691  86.5767 15.73786063  1302,6726.225,91.499,348.75300000000016,347.427,0.0
53712.0,STARLINK-4683,PAYLOAD,2022-09-14 20:00:01,15.73259612,9.2e-05,53.2172,224.9158,107.0034,53.9217,-0.00065707,-0.00092062,0.0,0 STARLINK-4683,1 53712U 22107N   22257.83334491 -.00092062  00000-0 -65707-3 0  9992,2 53712  53.2172 224.9158 0000920 107.0034  53.9217 15.73259612  1657,6727.725,91.53,350.209,348.971,0.0
53712.0,STARLINK-4683,PAYLOAD,2022-09-14 22:00:00,15.73198932,0.0001107,53.2174,224.5034,108.0784,165.1079,6.7797e-05,8.905e-05,0.0,0 STARLINK-4683,1 53712U 22107N   22257.91667824  .00008905  00000-0  67797-4 0  9993,2 53712  53.2174 224.5034 0001107 108.0784 165.1079 15.73198932  1300,6727.898,91.533,350.5080000000001,349.01800000000014,0.0
53712.0,STARLINK-4683,PAYLOAD,2022-09-15 04:00:00,15.73189525,0.0001823,53.2147,223.2685,96.4559,153.2826,0.00029623,0.0004113999999999,0.0,0 STARLINK-4683,1 53712U 22107N   22258.16667824  .00041140  00000-0  29623-3 0  9994,2 53712  53.2147 223.2685 0001823  96.4559 153.2826 15.73189525  1703,6727.925,91.534,351.017,348.564,0.0
53712.0,STARLINK-4683,PAYLOAD,2022-09-15 14:00:01,15.73271174,0.000168,53.2149,221.2057,100.4606,350.4702,0.00020304,0.00028057,0.0,0 STARLINK-4683,1 53712U 22107N   22258.58334491  .00028057  00000-0  20304-3 0  9990,2 53712  53.2149 221.2057 0001680 100.4606 350.4702 15.73271174  1308,6727.691999999999,91.529,350.68800000000016,348.427,0.0
53712.0,STARLINK-4683,PAYLOAD,2022-09-15 22:00:00,15.73324434,0.000159,53.215,219.5554,109.3804,70.5701,-0.00068257,-0.00095842,0.0,0 STARLINK-4683,1 53712U 22107N   22258.91667824 -.00095842  00000-0 -68257-3 0  9993,2 53712  53.2150 219.5554 0001590 109.3804  70.5701 15.73324434  1307,6727.54,91.526,350.475,348.336,0.0
53712.0,STARLINK-4683,PAYLOAD,2022-09-16 00:00:00,15.73307971,0.0001484,53.2149,219.1435,108.1629,184.0486,-0.00080012,-0.00111948,0.0,0 STARLINK-4683,1 53712U 22107N   22259.00001157 -.00111948  00000-0 -80012-3 0  9994,2 53712  53.2149 219.1435 0001484 108.1629 184.0486 15.73307971  1839,6727.587,91.527,350.451,348.454,0.0
53712.0,STARLINK-4683,PAYLOAD,2022-09-16 14:00:01,15.73215568,0.0001236,53.2141,216.2568,112.4579,245.4778,-0.00086087,-0.00119811,0.0,0 STARLINK-4683,1 53712U 22107N   22259.58334491 -.00119811  00000-0 -86087-3 0  9992,2 53712  53.2141 216.2568 0001236 112.4579 245.4778 15.73215568  1301,6727.851,91.532,350.547,348.884,0.0
53712.0,STARLINK-4683,PAYLOAD,2022-09-16 16:00:00,15.73155888,0.0001222,53.2141,215.844,115.8261,354.3529,-0.00013856,-0.00019982,0.0,0 STARLINK-4683,1 53712U 22107N   22259.66667824 -.00019982  00000-0 -13856-3 0  9992,2 53712  53.2141 215.8440 0001222 115.8261 354.3529 15.73155888  1947,6728.021,91.536,350.708,349.064,0.0
53712.0,STARLINK-4683,PAYLOAD,2022-09-16 22:00:00,15.731438,0.0001457,53.2143,214.6068,115.2648,331.5636,0.00039647,0.00055255,0.0,0 STARLINK-4683,1 53712U 22107N   22259.91667824  .00055255  00000-0  39647-3 0  9997,2 53712  53.2143 214.6068 0001457 115.2648 331.5636 15.73143800  1302,6728.055,91.536,350.901,348.94,0.0
53712.0,STARLINK-4683,PAYLOAD,2022-09-17 06:00:00,15.73163936,0.0001286999999999,53.2144,212.9594,106.2797,69.4388,0.00060375,0.0008484,0.0,0 STARLINK-4683,1 53712U 22107N   22260.25001157  .00084840  00000-0  60375-3 0  9991,2 53712  53.2144 212.9594 0001287 106.2797  69.4388 15.73163936  2038,6727.998000000001,91.535,350.72900000000016,348.997,0.0
53712.0,STARLINK-4683,PAYLOAD,2022-09-17 14:00:01,15.7323907,0.0001197,53.2144,211.3083,116.2281,148.4101,-0.00046818,-0.00065922,0.0,0 STARLINK-4683,1 53712U 22107N   22260.58334491 -.00065922  00000-0 -46818-3 0  9995,2 53712  53.2144 211.3083 0001197 116.2281 148.4101 15.73239070  1306,6727.784000000002,91.531,350.454,348.843,0.0
53712.0,STARLINK-4683,PAYLOAD,2022-09-17 22:00:00,15.73206603,0.0001211999999999,53.2143,209.6584,121.062,232.5096,0.00029328,0.00040751,0.0,0 STARLINK-4683,1 53712U 22107N   22260.91667824  .00040751  00000-0  29328-3 0  9999,2 53712  53.2143 209.6584 0001212 121.0620 232.5096 15.73206603  1304,6727.876,91.533,350.557,348.926,0.0
53712.0,STARLINK-4683,PAYLOAD,2022-09-18 14:00:01,15.73218122,0.0001404,53.2136,206.3594,116.8826,54.6812,0.00020427,0.00028166,0.0,0 STARLINK-4683,1 53712U 22107N   22261.58335648  .00028166  00000-0  20427-3 0  9996,2 53712  53.2136 206.3594 0001404 116.8826  54.6812 15.73218122  1302,6727.844,91.532,350.653,348.764,0.0
53712.0,STARLINK-4683,PAYLOAD,2022-09-18 22:00:00,15.732578,0.0001594,53.2138,204.7097,118.8941,141.564,-0.0003028,-0.00043006,0.0,0 STARLINK-4683,1 53712U 22107N   22261.91667824 -.00043006  00000-0 -30280-3 0  9997,2 53712  53.2138 204.7097 0001594 118.8941 141.5640 15.73257800  1305,6727.73,91.53,350.668,348.523,0.0
53712.0,STARLINK-4683,PAYLOAD,2022-09-19 06:00:02,15.73236224,0.0001474,53.2139,203.0619,110.8808,238.6223,-0.00017647,-0.00025351,0.0,0 STARLINK-4683,1 53712U 22107N   22262.25002315 -.00025351  00000-0 -17647-3 0  9998,2 53712  53.2139 203.0619 0001474 110.8808 238.6223 15.73236224  2357,6727.792,91.531,350.649,348.665,0.0
53712.0,STARLINK-4683,PAYLOAD,2022-09-19 14:00:01,15.73184235,0.0001460999999999,53.2141,201.4106,119.8497,318.5540000000001,-0.00011016,-0.0001604,0.0,0 STARLINK-4683,1 53712U 22107N   22262.58334491 -.00016040  00000-0 -11016-3 0  9996,2 53712  53.2141 201.4106 0001461 119.8497 318.5540 15.73184235  1300,6727.94,91.534,350.788,348.82199999999995,0.0
53712.0,STARLINK-4683,PAYLOAD,2022-09-19 22:00:00,15.73232349,0.000159,53.214,199.761,121.0219,46.2801,-0.00042794,-0.00060335,0.0,0 STARLINK-4683,1 53712U 22107N   22262.91667824 -.00060335  00000-0 -42794-3 0  9995,2 53712  53.2140 199.7610 0001590 121.0219  46.2801 15.73232349  1303,6727.803000000001,91.531,350.73800000000006,348.598,0.0
53712.0,STARLINK-4683,PAYLOAD,2022-09-20 14:00:01,15.73163714,0.00016,53.2135,196.4618,123.1865,221.988,0.00017549,0.00024041,0.0,0 STARLINK-4683,1 53712U 22107N   22263.58334491  .00024041  00000-0  17549-3 0  9992,2 53712  53.2135 196.4618 0001600 123.1865 221.9880 15.73163714  1309,6727.999,91.535,350.94,348.787,0.0
53712.0,STARLINK-4683,PAYLOAD,2022-09-20 22:00:01,15.73218986,0.0001654,53.2138,194.8125,124.2148,309.9095,-1.3744e-05,-2.551e-05,0.0,0 STARLINK-4683,1 53712U 22107N   22263.91668981 -.00002551  00000-0 -13744-4 0  9991,2 53712  53.2138 194.8125 0001654 124.2148 309.9095 15.73218986  1309,6727.840999999999,91.532,350.819,348.593,0.0
53712.0,STARLINK-4683,PAYLOAD,2022-09-21 14:00:01,15.73143731,0.0001543,53.2143,191.5131,125.2528,126.6773,0.00036746,0.00051141,0.0,0 STARLINK-4683,1 53712U 22107N   22264.58334491  .00051141  00000-0  36746-3 0  9994,2 53712  53.2143 191.5131 0001543 125.2528 126.6773 15.73143731  2714,6728.056,91.536,350.959,348.88199999999995,0.0
53712.0,STARLINK-4683,PAYLOAD,2022-09-21 22:00:00,15.73197227,0.0001593,53.2143,189.864,125.119,215.6811,0.00012578,0.00017066,0.0,0 STARLINK-4683,1 53712U 22107N   22264.91667824  .00017066  00000-0  12578-3 0  9995,2 53712  53.2143 189.8640 0001593 125.1190 215.6811 15.73197227  1303,6727.903,91.533,350.84,348.696,0.0
53712.0,STARLINK-4683,PAYLOAD,2022-09-22 14:00:01,15.73197252,0.0001465999999999,53.2139,186.5645,133.7953,24.8909,2.8384e-05,3.364e-05,0.0,0 STARLINK-4683,1 53712U 22107N   22265.58334491  .00003364  00000-0  28384-4 0  9999,2 53712  53.2139 186.5645 0001466 133.7953  24.8909 15.73197252  1304,6727.903,91.533,350.754,348.782,0.0
